[{"OBJECT_NAME":"OBJECT J","OBJECT_ID":"2023-085J","EPOCH":"2026-03-09T22:47:59.920512","MEAN_MOTION":15.31507187,"ECCENTRICITY":0.00067028,"INCLINATION":97.4828,"RA_OF_ASC_NODE":180.1819,"ARG_OF_PERICENTER":41.7877,"MEAN_ANOMALY":318.3875,"EPHEMERIS_TYPE":0,"CLASSIFICATION_TYPE":"U","NORAD_CAT_ID":57012,"ELEMENT_SET_NO":999,"REV_AT_EPOCH":15156,"BSTAR":0.00064525349,"MEAN_MOTION_DOT":0.00019595,"MEAN_MOTION_DDOT":0},{"OBJECT_NAME":"STARLINK-32221","OBJECT_ID":"2024-136P","EPOCH":"2026-03-09T06:53:37.601664","MEAN_MOTION":15.30189895,"ECCENTRICITY":0.00014395,"INCLINATION":53.1602,"RA_OF_ASC_NODE":77.4827,"ARG_OF_PERICENTER":81.3445,"MEAN_ANOMALY":278.7718,"EPHEMERIS_TYPE":0,"CLASSIFICATION_TYPE":"U","NORAD_CAT_ID":60342,"ELEMENT_SET_NO":999,"REV_AT_EPOCH":8960,"BSTAR":-7.759244e-6,"MEAN_MOTION_DOT":-5.89e-6,"MEAN_MOTION_DDOT":0}]
